OBJECT_NAME,OBJECT_ID,EPOCH,MEAN_MOTION,ECCENTRICITY,INCLINATION,RA_OF_ASC_NODE,ARG_OF_PERICENTER,MEAN_ANOMALY,EPHEMERIS_TYPE,CLASSIFICATION_TYPE,NORAD_CAT_ID,ELEMENT_SET_NO,REV_AT_EPOCH,BSTAR,MEAN_MOTION_DOT,MEAN_MOTION_DDOT
PERSEUS-M1,2014-033AF,2026-06-13T19:47:44.651040,14.95622915,.00105488,97.9644,108.9017,314.3223,45.7131,0,U,40039,999,65013,.11031521E-3,.1165E-4,0
POLYITAN-1,2014-033AJ,2026-06-13T14:14:17.683872,15.33140093,.0008379,98.0941,190.5143,151.4693,208.7007,0,U,40042,999,65304,.59022E-3,.18854E-3,0
TIGRISAT,2014-033AK,2026-06-13T22:46:57.162144,14.85151636,.00506932,97.7824,315.0351,85.5733,275.1271,0,U,40043,999,64514,.2547612E-3,.2176E-4,0
AEROCUBE 6A,2014-033AM,2026-06-13T22:49:34.746240,14.98078813,.00391552,97.7229,331.9340,28.9778,331.3607,0,U,40045,999,64613,.54027826E-3,.6435E-4,0
AEROCUBE 6B,2014-033AN,2026-06-13T10:08:45.694176,14.99536094,.00386355,97.7232,331.1933,22.2270,338.0617,0,U,40046,999,64619,.47408603E-3,.5856E-4,0
CANX-4,2014-034C,2026-06-13T21:49:37.838208,14.81259366,.00133904,98.3127,40.1021,27.1882,333.0028,0,U,40055,999,64404,.12200383E-3,.895E-5,0
CANX-5,2014-034D,2026-06-13T21:47:25.756800,14.81276587,.0013404,98.3128,40.1440,27.3070,332.8844,0,U,40056,999,63485,.12321356E-3,.904E-5,0
UKUBE-1,2014-037F,2026-06-13T22:17:27.432672,15.13508644,.00024834,98.4230,167.8583,134.9871,225.1559,0,U,40074,999,64806,.49382139E-3,.877E-4,0
BRITE-PL2 (HEWELIUSZ),2014-049B,2026-06-13T21:24:14.404896,14.94583917,.0015177,97.9094,276.8664,118.2447,242.0307,0,U,40119,999,64095,.14099021E-3,.1469E-4,0
AEROCUBE 5C,2015-058B,2026-06-13T16:25:02.558496,14.91439290,.01306064,64.7679,273.4878,64.6416,296.8154,0,U,40965,999,36513,.21937275E-3,.241E-4,0
AEROCUBE 7,2015-058C,2026-06-13T14:57:52.807968,14.95704832,.01203147,64.7630,255.9778,63.1063,298.2287,0,U,40966,999,36542,.26786599E-3,.3277E-4,0
FOX-1A (AO-85),2015-058D,2026-06-13T17:31:56.378496,14.90954961,.01302856,64.7761,289.7255,57.8943,303.4737,0,U,40967,999,11305,.23133565E-3,.2516E-4,0
SINOD-D 1,2015-058E,2026-06-13T16:03:01.088640,14.95885729,.01188157,64.7761,269.9304,54.4829,306.7298,0,U,40968,999,11613,.28164301E-3,.346E-4,0
SNAP-3 ALICE,2015-058G,2026-06-13T13:59:36.610368,15.59302899,.0029039,64.7494,116.3819,14.8133,345.3856,0,U,40970,999,11632,.14774E-2,.12094E-2,0
LMRST-SAT,2015-058H,2026-06-13T14:49:41.731104,14.90575803,.0131881,64.7766,286.4068,60.0183,301.3942,0,U,40971,999,11302,.21956E-3,.2363E-4,0
SNAP-3 EDDIE,2015-058J,2026-06-13T23:03:09.506880,15.60634570,.00287249,64.7422,105.8275,18.7281,341.4914,0,U,40972,999,11852,.15929535E-2,.137481E-2,0
PROPCUBE 3,2015-058K,2026-06-13T15:53:32.980992,14.94240218,.01238662,64.7689,263.5489,61.3006,300.0491,0,U,40973,999,11427,.24855117E-3,.293E-4,0
BISONSAT,2015-058L,2026-06-13T08:08:42.843264,15.16110491,.00786793,64.7583,186.0846,48.8392,311.9484,0,U,40974,999,11503,.52740827E-3,.10852E-3,0
SNAP-3 JIMI,2015-058M,2026-06-13T12:40:08.728320,15.02269914,.01059655,64.7647,231.3502,56.8578,304.2652,0,U,40975,999,11367,.31893366E-3,.4581E-4,0
PROPCUBE 1 (FLORA),2015-058N,2026-06-13T21:43:34.936608,14.89208772,.0130589,64.7755,305.4072,62.2045,299.2233,0,U,40976,999,11577,.23273942E-3,.2414E-4,0
SINOD-D 3,2015-058P,2026-06-13T16:38:21.221088,14.93996432,.0119084,64.7735,286.7288,59.5186,301.7623,0,U,40977,999,11423,.28965545E-3,.3383E-4,0
HORYU-4,2016-012D,2026-06-13T05:50:53.324736,15.92808659,.0004244,30.9840,107.9281,244.6601,115.3620,0,U,41340,999,57018,.11265E-2,.411178E-2,.59322E-4
RAVAN,2016-067B,2026-06-13T22:53:40.305408,15.54393413,.00048879,97.9896,54.1541,41.3102,318.8519,0,U,41849,999,52719,.78779569E-3,.51836E-3,0
CELTEE 1,2016-067C,2026-06-13T14:03:17.208576,15.19649941,.0000728,98.0678,30.9074,119.4992,240.6314,0,U,41850,999,52533,.27051E-3,.5691E-4,0
OPTICUBE 04,2016-067D,2026-06-13T13:35:24.141696,15.09645471,.0016779,98.0701,16.6614,126.7802,233.4968,0,U,41851,999,52462,.12025E-3,.1869E-4,0
AEROCUBE 8D,2016-067E,2026-06-13T14:39:42.809760,15.24352008,.0004502,98.0691,34.5106,131.9611,228.2008,0,U,41852,999,52552,.30933E-3,.7493E-4,0
AEROCUBE 8C,2016-067F,2026-06-13T21:34:34.771584,15.24604444,.00067171,98.0562,32.0527,78.2053,281.9936,0,U,41853,999,52556,.32958077E-3,.8053E-4,0
CORVUS BC2,2017-042X,2026-06-13T09:47:58.809120,15.06270804,.00141866,97.4051,325.9054,122.2810,237.9794,0,U,42846,999,48649,.25381228E-3,.3675E-4,0
CORVUS BC1,2017-042Y,2026-06-13T22:26:02.178816,15.06445971,.00131889,97.4086,327.2230,99.1673,261.1047,0,U,42847,999,48660,.27618261E-3,.4022E-4,0
MAKERSAT 0,2017-073D,2026-06-13T21:56:29.925600,15.31998671,.0105274,97.4636,47.4083,284.8512,74.1088,0,U,43016,999,46596,.51446721E-3,.18871E-3,0
